{"type": "FeatureCollection", "features": [ {"type": "Feature", "properties": {"norad_id": 31838, "name": "FENGYUN 1C DEB", "group": "fengyun-1c-debris", "lat": 67.32603988769752, "lon": -120.07195026409465, "alt_km": 788.4854256813796, "timestamp": "2025-12-13T16:48:32.994705+00:00", "meta": {"OBJECT_NAME": "FENGYUN 1C DEB", "OBJECT_ID": "1999-025CJC", "EPOCH": "2025-12-11T08:48:04.078368", "MEAN_MOTION": 14.21128577, "ECCENTRICITY": 0.00386433, "INCLINATION": 98.718, "RA_OF_ASC_NODE": 36.0771, "ARG_OF_PERICENTER": 99.3908, "MEAN_ANOMALY": 318.9348, "EPHEMERIS_TYPE": 0, "CLASSIFICATION_TYPE": "U", "NORAD_CAT_ID": 31838, "ELEMENT_SET_NO": 999, "REV_AT_EPOCH": 64557, "BSTAR": 0.0011422603, "MEAN_MOTION_DOT": 2.458e-05, "MEAN_MOTION_DDOT": 0}, "tle": {"line1": "1 31838U 99025CJC 25345.36671387  .00002458  00000+0  11423-2 0  9999", "line2": "2 31838  98.7180  36.0771 0038643  99.3908 318.9348 14.21128577645575"}}, "geometry": {"type": "Point", "coordinates": [-120.07195026409465, 67.32603988769752]}}, {"type": "Feature", "properties": {"norad_id": 31841, "name": "FENGYUN 1C DEB", "group": "fengyun-1c-debris", "lat": -72.01749332250337, "lon": -176.48353770964596, "alt_km": 673.6499097689284, "timestamp": "2025-12-13T16:48:32.994715+00:00", "meta": {"OBJECT_NAME": "FENGYUN 1C DEB", "OBJECT_ID": "1999-025CJF", "EPOCH": "2025-12-09T06:12:44.774784", "MEAN_MOTION": 14.03533428, "ECCENTRICITY": 0.0308721, "INCLINATION": 98.4185, "RA_OF_ASC_NODE": 152.251, "ARG_OF_PERICENTER": 315.3739, "MEAN_ANOMALY": 221.9811, "EPHEMERIS_TYPE": 0, "CLASSIFICATION_TYPE": "U", "NORAD_CAT_ID": 31841, "ELEMENT_SET_NO": 999, "REV_AT_EPOCH": 59290, "BSTAR": 0.0023276, "MEAN_MOTION_DOT": 5.531e-05, "MEAN_MOTION_DDOT": 0}, "tle": {"line1": "1 31841U 99025CJF 25343.25885156  .00005531  00000+0  23276-2 0  9994", "line2": "2 31841  98.4185 152.2510 0308721 315.3739 221.9811 14.03533428592904"}}, "geometry": {"type": "Point", "coordinates": [-176.48353770964596, -72.01749332250337]}}, {"type": "Feature", "properties": {"norad_id": 31843, "name": "FENGYUN 1C DEB", "group": "fengyun-1c-debris", "lat": -40.8701019861973, "lon": 100.17893187675121, "alt_km": 1430.7245077513144, "timestamp": "2025-12-13T16:48:32.994725+00:00", "meta": {"OBJECT_NAME": "FENGYUN 1C DEB", "OBJECT_ID": "1999-025CJH", "EPOCH": "2025-12-11T15:03:56.647008", "MEAN_MOTION": 13.33818146, "ECCENTRICITY": 0.06405347, "INCLINATION": 99.2819, "RA_OF_ASC_NODE": 286.4208, "ARG_OF_PERICENTER": 356.8288, "MEAN_ANOMALY": 2.887, "EPHEMERIS_TYPE": 0, "CLASSIFICATION_TYPE": "U", "NORAD_CAT_ID": 31843, "ELEMENT_SET_NO": 999, "REV_AT_EPOCH": 64681, "BSTAR": 0.012470964, "MEAN_MOTION_DOT": 0.00020021, "MEAN_MOTION_DDOT": 0}, "tle": {"line1": "1 31843U 99025CJH 25345.62773897  .00020021  00000+0  12471-1 0  9992", "line2": "2 31843  99.2819 286.4208 0640534 356.8288   2.8870 13.33818146646819"}}, "geometry": {"type": "Point", "coordinates": [100.17893187675121, -40.8701019861973]}}, {"type": "Feature", "properties": {"norad_id": 31844, "name": "FENGYUN 1C DEB", "group": "fengyun-1c-debris", "lat": -78.28878672372667, "lon": 95.20875972024584, "alt_km": 824.7079675893474, "timestamp": "2025-12-13T16:48:32.994736+00:00", "meta": {"OBJECT_NAME": "FENGYUN 1C DEB", "OBJECT_ID": "1999-025CJJ", "EPOCH": "2025-12-09T05:00:24.037056", "MEAN_MOTION": 14.19725395, "ECCENTRICITY": 0.010355, "INCLINATION": 100.2998, "RA_OF_ASC_NODE": 331.2997, "ARG_OF_PERICENTER": 0.53, "MEAN_ANOMALY": 359.5963, "EPHEMERIS_TYPE": 0, "CLASSIFICATION_TYPE": "U", "NORAD_CAT_ID": 31844, "ELEMENT_SET_NO": 999, "REV_AT_EPOCH": 95282, "BSTAR": 0.0014495, "MEAN_MOTION_DOT": 3.18e-05, "MEAN_MOTION_DDOT": 0}, "tle": {"line1": "1 31844U 99025CJJ 25343.20861154  .00003180  00000+0  14495-2 0  9995", "line2": "2 31844 100.2998 331.2997 0103550   0.5300 359.5963 14.19725395952829"}}, "geometry": {"type": "Point", "coordinates": [95.20875972024584, -78.28878672372667]}}, {"type": "Feature", "properties": {"norad_id": 31850, "name": "FENGYUN 1C DEB", "group": "fengyun-1c-debris", "lat": 27.838398919514056, "lon": -143.01040201503747, "alt_km": 442.9079415257247, "timestamp": "2025-12-13T16:48:32.994747+00:00", "meta": {"OBJECT_NAME": "FENGYUN 1C DEB", "OBJECT_ID": "1999-025CJQ", "EPOCH": "2025-12-11T21:51:41.514624", "MEAN_MOTION": 15.32796894, "ECCENTRICITY": 0.00770816, "INCLINATION": 98.5737, "RA_OF_ASC_NODE": 30.3469, "ARG_OF_PERICENTER": 92.2716, "MEAN_ANOMALY": 268.7351, "EPHEMERIS_TYPE": 0, "CLASSIFICATION_TYPE": "U", "NORAD_CAT_ID": 31850, "ELEMENT_SET_NO": 999, "REV_AT_EPOCH": 65816, "BSTAR": 0.0039605566, "MEAN_MOTION_DOT": 0.0013997, "MEAN_MOTION_DDOT": 0}, "tle": {"line1": "1 31850U 99025CJQ 25345.91089716  .00139970  00000+0  39606-2 0  9996", "line2": "2 31850  98.5737  30.3469 0077081  92.2716 268.7351 15.32796894658165"}}, "geometry": {"type": "Point", "coordinates": [-143.01040201503747, 27.838398919514056]}}, {"type": "Feature", "properties": {"norad_id": 31854, "name": "FENGYUN 1C DEB", "group": "fengyun-1c-debris", "lat": 22.004483880280358, "lon": 174.4835519296229, "alt_km": 833.1988269179592, "timestamp": "2025-12-13T16:48:32.994757+00:00", "meta": {"OBJECT_NAME": "FENGYUN 1C DEB", "OBJECT_ID": "1999-025CJU", "EPOCH": "2025-12-12T17:48:54.033120", "MEAN_MOTION": 14.03073049, "ECCENTRICITY": 0.00722693, "INCLINATION": 98.8473, "RA_OF_ASC_NODE": 349.9436, "ARG_OF_PERICENTER": 141.1479, "MEAN_ANOMALY": 219.4914, "EPHEMERIS_TYPE": 0, "CLASSIFICATION_TYPE": "U", "NORAD_CAT_ID": 31854, "ELEMENT_SET_NO": 999, "REV_AT_EPOCH": 69272, "BSTAR": 0.00062449752, "MEAN_MOTION_DOT": 9.51e-06, "MEAN_MOTION_DDOT": 0}, "tle": {"line1": "1 31854U 99025CJU 25346.74229205  .00000951  00000+0  62450-3 0  9991", "line2": "2 31854  98.8473 349.9436 0072269 141.1479 219.4914 14.03073049692720"}}, "geometry": {"type": "Point", "coordinates": [174.4835519296229, 22.004483880280358]}}, {"type": "Feature", "properties": {"norad_id": 31857, "name": "FENGYUN 1C DEB", "group": "fengyun-1c-debris", "lat": 42.68681063663033, "lon": -157.33238230583868, "alt_km": 1204.159724793618, "timestamp": "2025-12-13T16:48:32.994767+00:00", "meta": {"OBJECT_NAME": "FENGYUN 1C DEB", "OBJECT_ID": "1999-025CJX", "EPOCH": "2025-12-08T09:09:37.694592", "MEAN_MOTION": 13.61900061, "ECCENTRICITY": 0.0309157, "INCLINATION": 96.1892, "RA_OF_ASC_NODE": 13.5368, "ARG_OF_PERICENTER": 294.2443, "MEAN_ANOMALY": 62.6695, "EPHEMERIS_TYPE": 0, "CLASSIFICATION_TYPE": "U", "NORAD_CAT_ID": 31857, "ELEMENT_SET_NO": 999, "REV_AT_EPOCH": 61570, "BSTAR": 0.0028041545, "MEAN_MOTION_DOT": 2.946e-05, "MEAN_MOTION_DDOT": 0}, "tle": {"line1": "1 31857U 99025CJX 25342.38168628  .00002946  00000+0  28042-2 0  9995", "line2": "2 31857  96.1892  13.5368 0309157 294.2443  62.6695 13.61900061615700"}}, "geometry": {"type": "Point", "coordinates": [-157.33238230583868, 42.68681063663033]}}, {"type": "Feature", "properties": {"norad_id": 31861, "name": "FENGYUN 1C DEB", "group": "fengyun-1c-debris", "lat": -2.033261737118142, "lon": -179.03873785889635, "alt_km": 1483.8531668939404, "timestamp": "2025-12-13T16:48:32.994777+00:00", "meta": {"OBJECT_NAME": "FENGYUN 1C DEB", "OBJECT_ID": "1999-025CKB", "EPOCH": "2025-11-30T18:20:57.621120", "MEAN_MOTION": 13.30200627, "ECCENTRICITY": 0.04966148, "INCLINATION": 102.3423, "RA_OF_ASC_NODE": 165.0071, "ARG_OF_PERICENTER": 230.9853, "MEAN_ANOMALY": 124.6046, "EPHEMERIS_TYPE": 0, "CLASSIFICATION_TYPE": "U", "NORAD_CAT_ID": 31861, "ELEMENT_SET_NO": 999, "REV_AT_EPOCH": 66608, "BSTAR": 0.0034105388, "MEAN_MOTION_DOT": 3.105e-05, "MEAN_MOTION_DDOT": 0}, "tle": {"line1": "1 31861U 99025CKB 25334.76455580  .00003105  00000+0  34105-2 0  9994", "line2": "2 31861 102.3423 165.0071 0496614 230.9853 124.6046 13.30200627666089"}}, "geometry": {"type": "Point", "coordinates": [-179.03873785889635, -2.033261737118142]}}, {"type": "Feature", "properties": {"norad_id": 31877, "name": "FENGYUN 1C DEB", "group": "fengyun-1c-debris", "lat": 47.18802035687844, "lon": 48.21880863641526, "alt_km": 606.2276485992479, "timestamp": "2025-12-13T16:48:32.994787+00:00", "meta": {"OBJECT_NAME": "FENGYUN 1C DEB", "OBJECT_ID": "1999-025CKC", "EPOCH": "2025-12-10T03:49:37.380288", "MEAN_MOTION": 15.01407414, "ECCENTRICITY": 0.01044995, "INCLINATION": 99.0012, "RA_OF_ASC_NODE": 53.9701, "ARG_OF_PERICENTER": 287.3757, "MEAN_ANOMALY": 71.6056, "EPHEMERIS_TYPE": 0, "CLASSIFICATION_TYPE": "U", "NORAD_CAT_ID": 31877, "ELEMENT_SET_NO": 999, "REV_AT_EPOCH": 99003, "BSTAR": 0.001174344, "MEAN_MOTION_DOT": 0.00016981, "MEAN_MOTION_DDOT": 0}, "tle": {"line1": "1 31877U 99025CKC 25344.15946042  .00016981  00000+0  11743-2 0  9992", "line2": "2 31877  99.0012  53.9701 0104499 287.3757  71.6056 15.01407414990033"}}, "geometry": {"type": "Point", "coordinates": [48.21880863641526, 47.18802035687844]}}, {"type": "Feature", "properties": {"norad_id": 31878, "name": "FENGYUN 1C DEB", "group": "fengyun-1c-debris", "lat": -31.61815719718504, "lon": 85.54547063761805, "alt_km": 563.3659042515819, "timestamp": "2025-12-13T16:48:32.994797+00:00", "meta": {"OBJECT_NAME": "FENGYUN 1C DEB", "OBJECT_ID": "1999-025CKD", "EPOCH": "2025-12-03T00:27:41.548032", "MEAN_MOTION": 14.85464766, "ECCENTRICITY": 0.00842743, "INCLINATION": 99.4399, "RA_OF_ASC_NODE": 258.7733, "ARG_OF_PERICENTER": 269.6043, "MEAN_ANOMALY": 89.551, "EPHEMERIS_TYPE": 0, "CLASSIFICATION_TYPE": "U", "NORAD_CAT_ID": 31878, "ELEMENT_SET_NO": 999, "REV_AT_EPOCH": 97949, "BSTAR": 0.0019397439, "MEAN_MOTION_DOT": 0.000178, "MEAN_MOTION_DDOT": 0}, "tle": {"line1": "1 31878U 99025CKD 25337.01923088  .00017800  00000+0  19397-2 0  9999", "line2": "2 31878  99.4399 258.7733 0084274 269.6043  89.5510 14.85464766979499"}}, "geometry": {"type": "Point", "coordinates": [85.54547063761805, -31.61815719718504]}}]}